<?xml version="1.0" encoding="UTF-8" standalone="yes"?>
<gpx version="1.1" creator="https://onthegomap.com" xmlns="http://www.topografix.com/GPX/1/1">
  <metadata>
    <name>9km route</name>
    <link href="https://onthegomap.com">
      <text>On The Go Map</text>
    </link>
    <time>2026-07-21T08:55:57.206Z</time>
    <copyright author="On The Go Map, OpenStreetMap Contributors">
      <year>2026</year>
    </copyright>
  </metadata>
  <trk>
    <name>9km route</name>
    <trkseg>
      <trkpt lat="43.76094" lon="6.55848">
        <ele>950.3</ele>
      </trkpt>
      <trkpt lat="43.76087" lon="6.55839">
        <ele>950.7</ele>
      </trkpt>
      <trkpt lat="43.76047" lon="6.55803">
        <ele>954.9</ele>
      </trkpt>
      <trkpt lat="43.76005" lon="6.55766">
        <ele>961.4</ele>
      </trkpt>
      <trkpt lat="43.75987" lon="6.55814">
        <ele>960.6</ele>
      </trkpt>
      <trkpt lat="43.75979" lon="6.55821">
        <ele>961</ele>
      </trkpt>
      <trkpt lat="43.75975" lon="6.55833">
        <ele>961.9</ele>
      </trkpt>
      <trkpt lat="43.75968" lon="6.55832">
        <ele>962.7</ele>
      </trkpt>
      <trkpt lat="43.75967" lon="6.55823">
        <ele>963.4</ele>
      </trkpt>
      <trkpt lat="43.75958" lon="6.55796">
        <ele>966.2</ele>
      </trkpt>
      <trkpt lat="43.75946" lon="6.55771">
        <ele>969.8</ele>
      </trkpt>
      <trkpt lat="43.75934" lon="6.55754">
        <ele>972.5</ele>
      </trkpt>
      <trkpt lat="43.75916" lon="6.55744">
        <ele>975.3</ele>
      </trkpt>
      <trkpt lat="43.75902" lon="6.55731">
        <ele>976.9</ele>
      </trkpt>
      <trkpt lat="43.75885" lon="6.55719">
        <ele>977.6</ele>
      </trkpt>
      <trkpt lat="43.75873" lon="6.55717">
        <ele>977.1</ele>
      </trkpt>
      <trkpt lat="43.75864" lon="6.55723">
        <ele>976.3</ele>
      </trkpt>
      <trkpt lat="43.75859" lon="6.55713">
        <ele>976.6</ele>
      </trkpt>
      <trkpt lat="43.75854" lon="6.55704">
        <ele>976.8</ele>
      </trkpt>
      <trkpt lat="43.75837" lon="6.55682">
        <ele>977.2</ele>
      </trkpt>
      <trkpt lat="43.75838" lon="6.55654">
        <ele>979</ele>
      </trkpt>
      <trkpt lat="43.7583" lon="6.55611">
        <ele>981.3</ele>
      </trkpt>
      <trkpt lat="43.7581" lon="6.55545">
        <ele>983.6</ele>
      </trkpt>
      <trkpt lat="43.75789" lon="6.5547">
        <ele>985.8</ele>
      </trkpt>
      <trkpt lat="43.75792" lon="6.55433">
        <ele>988</ele>
      </trkpt>
      <trkpt lat="43.75798" lon="6.55405">
        <ele>990.6</ele>
      </trkpt>
      <trkpt lat="43.75793" lon="6.55334">
        <ele>996.6</ele>
      </trkpt>
      <trkpt lat="43.75741" lon="6.55296">
        <ele>1000</ele>
      </trkpt>
      <trkpt lat="43.75691" lon="6.5527">
        <ele>1008.2</ele>
      </trkpt>
      <trkpt lat="43.75634" lon="6.55189">
        <ele>1015.8</ele>
      </trkpt>
      <trkpt lat="43.75616" lon="6.55171">
        <ele>1016.5</ele>
      </trkpt>
      <trkpt lat="43.75592" lon="6.55146">
        <ele>1016.2</ele>
      </trkpt>
      <trkpt lat="43.75589" lon="6.55126">
        <ele>1014.5</ele>
      </trkpt>
      <trkpt lat="43.75593" lon="6.55111">
        <ele>1012.9</ele>
      </trkpt>
      <trkpt lat="43.7559" lon="6.55092">
        <ele>1011</ele>
      </trkpt>
      <trkpt lat="43.75578" lon="6.55079">
        <ele>1008.9</ele>
      </trkpt>
      <trkpt lat="43.75559" lon="6.5504">
        <ele>1003.8</ele>
      </trkpt>
      <trkpt lat="43.75541" lon="6.54957">
        <ele>998</ele>
      </trkpt>
      <trkpt lat="43.75505" lon="6.54946">
        <ele>994.3</ele>
      </trkpt>
      <trkpt lat="43.75291" lon="6.54807">
        <ele>970.6</ele>
      </trkpt>
      <trkpt lat="43.75279" lon="6.54783">
        <ele>972.6</ele>
      </trkpt>
      <trkpt lat="43.75267" lon="6.5477">
        <ele>972.7</ele>
      </trkpt>
      <trkpt lat="43.75265" lon="6.54768">
        <ele>972.4</ele>
      </trkpt>
      <trkpt lat="43.75246" lon="6.54764">
        <ele>970.7</ele>
      </trkpt>
      <trkpt lat="43.75232" lon="6.54753">
        <ele>971.1</ele>
      </trkpt>
      <trkpt lat="43.75228" lon="6.54716">
        <ele>976.4</ele>
      </trkpt>
      <trkpt lat="43.75214" lon="6.54719">
        <ele>973.9</ele>
      </trkpt>
      <trkpt lat="43.75197" lon="6.54723">
        <ele>970.3</ele>
      </trkpt>
      <trkpt lat="43.75141" lon="6.54678">
        <ele>970.1</ele>
      </trkpt>
      <trkpt lat="43.75119" lon="6.54648">
        <ele>970</ele>
      </trkpt>
      <trkpt lat="43.7511" lon="6.54622">
        <ele>970.9</ele>
      </trkpt>
      <trkpt lat="43.75107" lon="6.54601">
        <ele>970.9</ele>
      </trkpt>
      <trkpt lat="43.75082" lon="6.54594">
        <ele>964.4</ele>
      </trkpt>
      <trkpt lat="43.75058" lon="6.54583">
        <ele>958.2</ele>
      </trkpt>
      <trkpt lat="43.75037" lon="6.54566">
        <ele>954.3</ele>
      </trkpt>
      <trkpt lat="43.75035" lon="6.54534">
        <ele>956</ele>
      </trkpt>
      <trkpt lat="43.75044" lon="6.54515">
        <ele>961</ele>
      </trkpt>
      <trkpt lat="43.75054" lon="6.54503">
        <ele>965.8</ele>
      </trkpt>
      <trkpt lat="43.75066" lon="6.54494">
        <ele>971</ele>
      </trkpt>
      <trkpt lat="43.75078" lon="6.54477">
        <ele>977.4</ele>
      </trkpt>
      <trkpt lat="43.75082" lon="6.54468">
        <ele>980.2</ele>
      </trkpt>
      <trkpt lat="43.75091" lon="6.54457">
        <ele>984.5</ele>
      </trkpt>
      <trkpt lat="43.75106" lon="6.5446">
        <ele>990.9</ele>
      </trkpt>
      <trkpt lat="43.75116" lon="6.54455">
        <ele>994.4</ele>
      </trkpt>
      <trkpt lat="43.7512" lon="6.54439">
        <ele>997</ele>
      </trkpt>
      <trkpt lat="43.7512" lon="6.54421">
        <ele>998.1</ele>
      </trkpt>
      <trkpt lat="43.75125" lon="6.54402">
        <ele>1000.6</ele>
      </trkpt>
      <trkpt lat="43.75151" lon="6.54401">
        <ele>1009.6</ele>
      </trkpt>
      <trkpt lat="43.75161" lon="6.54387">
        <ele>1013.6</ele>
      </trkpt>
      <trkpt lat="43.75185" lon="6.54351">
        <ele>1022.7</ele>
      </trkpt>
      <trkpt lat="43.75203" lon="6.54338">
        <ele>1029.4</ele>
      </trkpt>
      <trkpt lat="43.75221" lon="6.54339">
        <ele>1035.8</ele>
      </trkpt>
      <trkpt lat="43.75257" lon="6.54347">
        <ele>1048.6</ele>
      </trkpt>
      <trkpt lat="43.75271" lon="6.54322">
        <ele>1055.4</ele>
      </trkpt>
      <trkpt lat="43.75281" lon="6.54317">
        <ele>1059.5</ele>
      </trkpt>
      <trkpt lat="43.75292" lon="6.54314">
        <ele>1062.9</ele>
      </trkpt>
      <trkpt lat="43.75307" lon="6.54317">
        <ele>1066.7</ele>
      </trkpt>
      <trkpt lat="43.75313" lon="6.54307">
        <ele>1069</ele>
      </trkpt>
      <trkpt lat="43.75334" lon="6.54285">
        <ele>1075.2</ele>
      </trkpt>
      <trkpt lat="43.75344" lon="6.54271">
        <ele>1077.2</ele>
      </trkpt>
      <trkpt lat="43.75353" lon="6.54282">
        <ele>1077.6</ele>
      </trkpt>
      <trkpt lat="43.75361" lon="6.54287">
        <ele>1077.3</ele>
      </trkpt>
      <trkpt lat="43.7537" lon="6.54282">
        <ele>1077.7</ele>
      </trkpt>
      <trkpt lat="43.75378" lon="6.54281">
        <ele>1078.2</ele>
      </trkpt>
      <trkpt lat="43.75386" lon="6.54266">
        <ele>1080</ele>
      </trkpt>
      <trkpt lat="43.75405" lon="6.54294">
        <ele>1077.2</ele>
      </trkpt>
      <trkpt lat="43.75428" lon="6.54334">
        <ele>1074.6</ele>
      </trkpt>
      <trkpt lat="43.75437" lon="6.54382">
        <ele>1074.6</ele>
      </trkpt>
      <trkpt lat="43.75451" lon="6.54397">
        <ele>1074.4</ele>
      </trkpt>
      <trkpt lat="43.75473" lon="6.5441">
        <ele>1072.9</ele>
      </trkpt>
      <trkpt lat="43.75484" lon="6.54407">
        <ele>1072.1</ele>
      </trkpt>
      <trkpt lat="43.75493" lon="6.54401">
        <ele>1071.4</ele>
      </trkpt>
      <trkpt lat="43.75512" lon="6.54397">
        <ele>1070</ele>
      </trkpt>
      <trkpt lat="43.75529" lon="6.54397">
        <ele>1068.5</ele>
      </trkpt>
      <trkpt lat="43.75538" lon="6.54393">
        <ele>1067.6</ele>
      </trkpt>
      <trkpt lat="43.75551" lon="6.54378">
        <ele>1066.5</ele>
      </trkpt>
      <trkpt lat="43.75561" lon="6.54358">
        <ele>1066</ele>
      </trkpt>
      <trkpt lat="43.75568" lon="6.54348">
        <ele>1066</ele>
      </trkpt>
      <trkpt lat="43.75574" lon="6.54344">
        <ele>1065.5</ele>
      </trkpt>
      <trkpt lat="43.75591" lon="6.54351">
        <ele>1063.9</ele>
      </trkpt>
      <trkpt lat="43.75608" lon="6.54355">
        <ele>1062.3</ele>
      </trkpt>
      <trkpt lat="43.75632" lon="6.54351">
        <ele>1060.7</ele>
      </trkpt>
      <trkpt lat="43.75659" lon="6.54356">
        <ele>1058.7</ele>
      </trkpt>
      <trkpt lat="43.75676" lon="6.54365">
        <ele>1056</ele>
      </trkpt>
      <trkpt lat="43.75686" lon="6.54375">
        <ele>1053.9</ele>
      </trkpt>
      <trkpt lat="43.75694" lon="6.54388">
        <ele>1051.4</ele>
      </trkpt>
      <trkpt lat="43.75701" lon="6.54396">
        <ele>1049.4</ele>
      </trkpt>
      <trkpt lat="43.7571" lon="6.54403">
        <ele>1047.1</ele>
      </trkpt>
      <trkpt lat="43.75716" lon="6.54401">
        <ele>1046.3</ele>
      </trkpt>
      <trkpt lat="43.75722" lon="6.54397">
        <ele>1046</ele>
      </trkpt>
      <trkpt lat="43.75724" lon="6.54384">
        <ele>1046.1</ele>
      </trkpt>
      <trkpt lat="43.75723" lon="6.54378">
        <ele>1046.6</ele>
      </trkpt>
      <trkpt lat="43.75728" lon="6.54367">
        <ele>1047.3</ele>
      </trkpt>
      <trkpt lat="43.7574" lon="6.54357">
        <ele>1046.1</ele>
      </trkpt>
      <trkpt lat="43.75749" lon="6.54355">
        <ele>1043.9</ele>
      </trkpt>
      <trkpt lat="43.75769" lon="6.54366">
        <ele>1037.9</ele>
      </trkpt>
      <trkpt lat="43.75787" lon="6.54366">
        <ele>1033.6</ele>
      </trkpt>
      <trkpt lat="43.75798" lon="6.5436">
        <ele>1031.8</ele>
      </trkpt>
      <trkpt lat="43.75822" lon="6.54344">
        <ele>1027.7</ele>
      </trkpt>
      <trkpt lat="43.75843" lon="6.54332">
        <ele>1024.4</ele>
      </trkpt>
      <trkpt lat="43.7586" lon="6.54347">
        <ele>1019.6</ele>
      </trkpt>
      <trkpt lat="43.75875" lon="6.5435">
        <ele>1016.8</ele>
      </trkpt>
      <trkpt lat="43.75891" lon="6.54351">
        <ele>1014.2</ele>
      </trkpt>
      <trkpt lat="43.75926" lon="6.54338">
        <ele>1011.2</ele>
      </trkpt>
      <trkpt lat="43.75943" lon="6.54328">
        <ele>1009.8</ele>
      </trkpt>
      <trkpt lat="43.75956" lon="6.54329">
        <ele>1008.3</ele>
      </trkpt>
      <trkpt lat="43.75965" lon="6.54338">
        <ele>1007.1</ele>
      </trkpt>
      <trkpt lat="43.76027" lon="6.54299">
        <ele>1005.6</ele>
      </trkpt>
      <trkpt lat="43.76033" lon="6.54282">
        <ele>1006.2</ele>
      </trkpt>
      <trkpt lat="43.76039" lon="6.54251">
        <ele>1007.5</ele>
      </trkpt>
      <trkpt lat="43.7604" lon="6.54229">
        <ele>1008.8</ele>
      </trkpt>
      <trkpt lat="43.7603" lon="6.54204">
        <ele>1010</ele>
      </trkpt>
      <trkpt lat="43.76026" lon="6.54181">
        <ele>1010.4</ele>
      </trkpt>
      <trkpt lat="43.76036" lon="6.54149">
        <ele>1010.5</ele>
      </trkpt>
      <trkpt lat="43.76049" lon="6.54117">
        <ele>1009.4</ele>
      </trkpt>
      <trkpt lat="43.7606" lon="6.54101">
        <ele>1008.5</ele>
      </trkpt>
      <trkpt lat="43.76132" lon="6.54044">
        <ele>998.4</ele>
      </trkpt>
      <trkpt lat="43.76183" lon="6.54007">
        <ele>984.8</ele>
      </trkpt>
      <trkpt lat="43.76191" lon="6.53991">
        <ele>982</ele>
      </trkpt>
      <trkpt lat="43.76191" lon="6.53968">
        <ele>980</ele>
      </trkpt>
      <trkpt lat="43.76194" lon="6.53949">
        <ele>978.8</ele>
      </trkpt>
      <trkpt lat="43.76203" lon="6.53921">
        <ele>976.8</ele>
      </trkpt>
      <trkpt lat="43.76201" lon="6.53902">
        <ele>977.3</ele>
      </trkpt>
      <trkpt lat="43.76189" lon="6.53895">
        <ele>978.4</ele>
      </trkpt>
      <trkpt lat="43.76186" lon="6.53879">
        <ele>979.2</ele>
      </trkpt>
      <trkpt lat="43.76191" lon="6.53857">
        <ele>979.6</ele>
      </trkpt>
      <trkpt lat="43.76199" lon="6.53842">
        <ele>979.5</ele>
      </trkpt>
      <trkpt lat="43.76208" lon="6.53837">
        <ele>979.2</ele>
      </trkpt>
      <trkpt lat="43.7622" lon="6.53824">
        <ele>978.9</ele>
      </trkpt>
      <trkpt lat="43.76231" lon="6.53807">
        <ele>979.5</ele>
      </trkpt>
      <trkpt lat="43.7623" lon="6.53781">
        <ele>982.9</ele>
      </trkpt>
      <trkpt lat="43.76225" lon="6.53754">
        <ele>987.8</ele>
      </trkpt>
      <trkpt lat="43.76233" lon="6.53739">
        <ele>989.3</ele>
      </trkpt>
      <trkpt lat="43.76237" lon="6.53719">
        <ele>992.6</ele>
      </trkpt>
      <trkpt lat="43.76251" lon="6.53714">
        <ele>990.3</ele>
      </trkpt>
      <trkpt lat="43.76281" lon="6.53712">
        <ele>982.1</ele>
      </trkpt>
      <trkpt lat="43.76293" lon="6.53719">
        <ele>977.7</ele>
      </trkpt>
      <trkpt lat="43.76316" lon="6.53726">
        <ele>969.5</ele>
      </trkpt>
      <trkpt lat="43.76341" lon="6.53741">
        <ele>959.9</ele>
      </trkpt>
      <trkpt lat="43.76358" lon="6.53754">
        <ele>953.4</ele>
      </trkpt>
      <trkpt lat="43.76373" lon="6.5377">
        <ele>946.7</ele>
      </trkpt>
      <trkpt lat="43.76388" lon="6.53787">
        <ele>939.7</ele>
      </trkpt>
      <trkpt lat="43.76404" lon="6.5379">
        <ele>934.8</ele>
      </trkpt>
      <trkpt lat="43.76414" lon="6.53787">
        <ele>932.3</ele>
      </trkpt>
      <trkpt lat="43.76459" lon="6.53778">
        <ele>923.5</ele>
      </trkpt>
      <trkpt lat="43.76483" lon="6.5377">
        <ele>921.3</ele>
      </trkpt>
      <trkpt lat="43.76493" lon="6.53776">
        <ele>918.9</ele>
      </trkpt>
      <trkpt lat="43.76499" lon="6.53789">
        <ele>915.1</ele>
      </trkpt>
      <trkpt lat="43.76514" lon="6.53843">
        <ele>902.8</ele>
      </trkpt>
      <trkpt lat="43.76528" lon="6.53867">
        <ele>898.1</ele>
      </trkpt>
      <trkpt lat="43.76528" lon="6.53882">
        <ele>896.9</ele>
      </trkpt>
      <trkpt lat="43.7651" lon="6.53893">
        <ele>897.5</ele>
      </trkpt>
      <trkpt lat="43.76495" lon="6.53904">
        <ele>898.7</ele>
      </trkpt>
      <trkpt lat="43.76483" lon="6.5392">
        <ele>899.7</ele>
      </trkpt>
      <trkpt lat="43.76475" lon="6.5393">
        <ele>900.3</ele>
      </trkpt>
      <trkpt lat="43.7648" lon="6.53949">
        <ele>900.1</ele>
      </trkpt>
      <trkpt lat="43.76451" lon="6.53945">
        <ele>903.6</ele>
      </trkpt>
      <trkpt lat="43.76438" lon="6.53946">
        <ele>905.5</ele>
      </trkpt>
      <trkpt lat="43.76424" lon="6.53965">
        <ele>907.5</ele>
      </trkpt>
      <trkpt lat="43.76412" lon="6.53988">
        <ele>908.8</ele>
      </trkpt>
      <trkpt lat="43.76412" lon="6.53995">
        <ele>908.2</ele>
      </trkpt>
      <trkpt lat="43.76415" lon="6.54002">
        <ele>907.5</ele>
      </trkpt>
      <trkpt lat="43.76423" lon="6.54014">
        <ele>906.3</ele>
      </trkpt>
      <trkpt lat="43.76428" lon="6.54028">
        <ele>905.5</ele>
      </trkpt>
      <trkpt lat="43.76431" lon="6.54043">
        <ele>905.6</ele>
      </trkpt>
      <trkpt lat="43.76427" lon="6.54063">
        <ele>907.7</ele>
      </trkpt>
      <trkpt lat="43.76415" lon="6.54091">
        <ele>912.2</ele>
      </trkpt>
      <trkpt lat="43.7639" lon="6.54137">
        <ele>921.2</ele>
      </trkpt>
      <trkpt lat="43.76392" lon="6.54151">
        <ele>921.6</ele>
      </trkpt>
      <trkpt lat="43.76396" lon="6.54155">
        <ele>921.7</ele>
      </trkpt>
      <trkpt lat="43.76424" lon="6.54165">
        <ele>919.9</ele>
      </trkpt>
      <trkpt lat="43.76434" lon="6.54176">
        <ele>920.3</ele>
      </trkpt>
      <trkpt lat="43.76442" lon="6.54191">
        <ele>921.1</ele>
      </trkpt>
      <trkpt lat="43.76455" lon="6.54221">
        <ele>922.9</ele>
      </trkpt>
      <trkpt lat="43.76478" lon="6.54242">
        <ele>922.6</ele>
      </trkpt>
      <trkpt lat="43.7651" lon="6.54284">
        <ele>922</ele>
      </trkpt>
      <trkpt lat="43.76531" lon="6.54303">
        <ele>920.1</ele>
      </trkpt>
      <trkpt lat="43.76562" lon="6.54321">
        <ele>916.6</ele>
      </trkpt>
      <trkpt lat="43.76577" lon="6.5433">
        <ele>915.2</ele>
      </trkpt>
      <trkpt lat="43.76597" lon="6.54346">
        <ele>913.9</ele>
      </trkpt>
      <trkpt lat="43.76605" lon="6.54355">
        <ele>913.7</ele>
      </trkpt>
      <trkpt lat="43.76606" lon="6.54365">
        <ele>913.8</ele>
      </trkpt>
      <trkpt lat="43.76621" lon="6.54371">
        <ele>913.5</ele>
      </trkpt>
      <trkpt lat="43.76639" lon="6.54374">
        <ele>914.1</ele>
      </trkpt>
      <trkpt lat="43.76652" lon="6.54373">
        <ele>914.9</ele>
      </trkpt>
      <trkpt lat="43.76662" lon="6.5437">
        <ele>915.8</ele>
      </trkpt>
      <trkpt lat="43.76675" lon="6.54358">
        <ele>917.2</ele>
      </trkpt>
      <trkpt lat="43.7668" lon="6.54353">
        <ele>917.7</ele>
      </trkpt>
      <trkpt lat="43.76684" lon="6.54345">
        <ele>918.2</ele>
      </trkpt>
      <trkpt lat="43.76716" lon="6.54291">
        <ele>920.3</ele>
      </trkpt>
      <trkpt lat="43.76756" lon="6.54219">
        <ele>916.6</ele>
      </trkpt>
      <trkpt lat="43.76771" lon="6.54195">
        <ele>914.9</ele>
      </trkpt>
      <trkpt lat="43.76787" lon="6.54179">
        <ele>913.5</ele>
      </trkpt>
      <trkpt lat="43.76805" lon="6.54177">
        <ele>913.1</ele>
      </trkpt>
      <trkpt lat="43.76821" lon="6.54181">
        <ele>913.6</ele>
      </trkpt>
      <trkpt lat="43.76851" lon="6.54196">
        <ele>915.2</ele>
      </trkpt>
      <trkpt lat="43.76866" lon="6.54191">
        <ele>915.2</ele>
      </trkpt>
      <trkpt lat="43.76883" lon="6.54179">
        <ele>914.8</ele>
      </trkpt>
      <trkpt lat="43.769" lon="6.54178">
        <ele>915.4</ele>
      </trkpt>
      <trkpt lat="43.76916" lon="6.54179">
        <ele>916.4</ele>
      </trkpt>
      <trkpt lat="43.76929" lon="6.54185">
        <ele>917.5</ele>
      </trkpt>
      <trkpt lat="43.76935" lon="6.54189">
        <ele>918.1</ele>
      </trkpt>
      <trkpt lat="43.76941" lon="6.54192">
        <ele>918.5</ele>
      </trkpt>
      <trkpt lat="43.76949" lon="6.54191">
        <ele>919</ele>
      </trkpt>
      <trkpt lat="43.76952" lon="6.5419">
        <ele>919</ele>
      </trkpt>
      <trkpt lat="43.76963" lon="6.54178">
        <ele>918.9</ele>
      </trkpt>
      <trkpt lat="43.76974" lon="6.54145">
        <ele>918.9</ele>
      </trkpt>
      <trkpt lat="43.76963" lon="6.54178">
        <ele>918.9</ele>
      </trkpt>
      <trkpt lat="43.76952" lon="6.5419">
        <ele>918.8</ele>
      </trkpt>
      <trkpt lat="43.76949" lon="6.54191">
        <ele>918.8</ele>
      </trkpt>
      <trkpt lat="43.76941" lon="6.54192">
        <ele>918.5</ele>
      </trkpt>
      <trkpt lat="43.76935" lon="6.54189">
        <ele>918</ele>
      </trkpt>
      <trkpt lat="43.76929" lon="6.54185">
        <ele>917.4</ele>
      </trkpt>
      <trkpt lat="43.76916" lon="6.54179">
        <ele>916.3</ele>
      </trkpt>
      <trkpt lat="43.769" lon="6.54178">
        <ele>915.3</ele>
      </trkpt>
      <trkpt lat="43.76883" lon="6.54179">
        <ele>914.8</ele>
      </trkpt>
      <trkpt lat="43.76866" lon="6.54191">
        <ele>915.3</ele>
      </trkpt>
      <trkpt lat="43.76851" lon="6.54196">
        <ele>915.4</ele>
      </trkpt>
      <trkpt lat="43.76821" lon="6.54181">
        <ele>913.4</ele>
      </trkpt>
      <trkpt lat="43.76805" lon="6.54177">
        <ele>912.9</ele>
      </trkpt>
      <trkpt lat="43.76787" lon="6.54179">
        <ele>913.5</ele>
      </trkpt>
      <trkpt lat="43.76771" lon="6.54195">
        <ele>915</ele>
      </trkpt>
      <trkpt lat="43.76756" lon="6.54219">
        <ele>916.6</ele>
      </trkpt>
      <trkpt lat="43.76716" lon="6.54291">
        <ele>920.5</ele>
      </trkpt>
      <trkpt lat="43.76684" lon="6.54345">
        <ele>918</ele>
      </trkpt>
      <trkpt lat="43.7668" lon="6.54353">
        <ele>917.5</ele>
      </trkpt>
      <trkpt lat="43.76675" lon="6.54358">
        <ele>917.1</ele>
      </trkpt>
      <trkpt lat="43.76662" lon="6.5437">
        <ele>915.9</ele>
      </trkpt>
      <trkpt lat="43.76652" lon="6.54373">
        <ele>914.8</ele>
      </trkpt>
      <trkpt lat="43.76639" lon="6.54374">
        <ele>914</ele>
      </trkpt>
      <trkpt lat="43.76621" lon="6.54371">
        <ele>913.6</ele>
      </trkpt>
      <trkpt lat="43.76606" lon="6.54365">
        <ele>913.9</ele>
      </trkpt>
      <trkpt lat="43.766" lon="6.54374">
        <ele>914.2</ele>
      </trkpt>
      <trkpt lat="43.76588" lon="6.5438">
        <ele>914.7</ele>
      </trkpt>
      <trkpt lat="43.76574" lon="6.54384">
        <ele>915.4</ele>
      </trkpt>
      <trkpt lat="43.7656" lon="6.5439">
        <ele>916.3</ele>
      </trkpt>
      <trkpt lat="43.76532" lon="6.54403">
        <ele>919</ele>
      </trkpt>
      <trkpt lat="43.76506" lon="6.54412">
        <ele>923.2</ele>
      </trkpt>
      <trkpt lat="43.76473" lon="6.54403">
        <ele>928.7</ele>
      </trkpt>
      <trkpt lat="43.76455" lon="6.54402">
        <ele>930.9</ele>
      </trkpt>
      <trkpt lat="43.76447" lon="6.54408">
        <ele>931.5</ele>
      </trkpt>
      <trkpt lat="43.76442" lon="6.54417">
        <ele>931.8</ele>
      </trkpt>
      <trkpt lat="43.76421" lon="6.54428">
        <ele>933.4</ele>
      </trkpt>
      <trkpt lat="43.76409" lon="6.54416">
        <ele>934.5</ele>
      </trkpt>
      <trkpt lat="43.76384" lon="6.54386">
        <ele>938.8</ele>
      </trkpt>
      <trkpt lat="43.76336" lon="6.54357">
        <ele>946.7</ele>
      </trkpt>
      <trkpt lat="43.76321" lon="6.54356">
        <ele>949.6</ele>
      </trkpt>
      <trkpt lat="43.76271" lon="6.54362">
        <ele>961.2</ele>
      </trkpt>
      <trkpt lat="43.7624" lon="6.5436">
        <ele>969.4</ele>
      </trkpt>
      <trkpt lat="43.76232" lon="6.54356">
        <ele>971.4</ele>
      </trkpt>
      <trkpt lat="43.7622" lon="6.54345">
        <ele>974.5</ele>
      </trkpt>
      <trkpt lat="43.76212" lon="6.54337">
        <ele>976.7</ele>
      </trkpt>
      <trkpt lat="43.76204" lon="6.5434">
        <ele>977.9</ele>
      </trkpt>
      <trkpt lat="43.76202" lon="6.54345">
        <ele>978.4</ele>
      </trkpt>
      <trkpt lat="43.76204" lon="6.54356">
        <ele>978.7</ele>
      </trkpt>
      <trkpt lat="43.7622" lon="6.54386">
        <ele>974.7</ele>
      </trkpt>
      <trkpt lat="43.76222" lon="6.54397">
        <ele>974.5</ele>
      </trkpt>
      <trkpt lat="43.76213" lon="6.54424">
        <ele>975.8</ele>
      </trkpt>
      <trkpt lat="43.76199" lon="6.54444">
        <ele>978.2</ele>
      </trkpt>
      <trkpt lat="43.76186" lon="6.54449">
        <ele>980.9</ele>
      </trkpt>
      <trkpt lat="43.76171" lon="6.54448">
        <ele>984.1</ele>
      </trkpt>
      <trkpt lat="43.76132" lon="6.5446">
        <ele>988.9</ele>
      </trkpt>
      <trkpt lat="43.7609" lon="6.54476">
        <ele>992</ele>
      </trkpt>
      <trkpt lat="43.76046" lon="6.54489">
        <ele>994.5</ele>
      </trkpt>
      <trkpt lat="43.76032" lon="6.54492">
        <ele>995</ele>
      </trkpt>
      <trkpt lat="43.76023" lon="6.5449">
        <ele>995.4</ele>
      </trkpt>
      <trkpt lat="43.76012" lon="6.54477">
        <ele>995.8</ele>
      </trkpt>
      <trkpt lat="43.75991" lon="6.54435">
        <ele>998</ele>
      </trkpt>
      <trkpt lat="43.75984" lon="6.5439">
        <ele>1001.8</ele>
      </trkpt>
      <trkpt lat="43.75971" lon="6.54354">
        <ele>1005.1</ele>
      </trkpt>
      <trkpt lat="43.75965" lon="6.54338">
        <ele>1006.9</ele>
      </trkpt>
      <trkpt lat="43.75956" lon="6.54329">
        <ele>1008.4</ele>
      </trkpt>
      <trkpt lat="43.75943" lon="6.54328">
        <ele>1010.1</ele>
      </trkpt>
      <trkpt lat="43.75926" lon="6.54338">
        <ele>1011.2</ele>
      </trkpt>
      <trkpt lat="43.75891" lon="6.54351">
        <ele>1014.4</ele>
      </trkpt>
      <trkpt lat="43.75875" lon="6.5435">
        <ele>1016.9</ele>
      </trkpt>
      <trkpt lat="43.7586" lon="6.54347">
        <ele>1019.9</ele>
      </trkpt>
      <trkpt lat="43.75843" lon="6.54332">
        <ele>1024.3</ele>
      </trkpt>
      <trkpt lat="43.75822" lon="6.54344">
        <ele>1027.8</ele>
      </trkpt>
      <trkpt lat="43.75798" lon="6.5436">
        <ele>1031.9</ele>
      </trkpt>
      <trkpt lat="43.75787" lon="6.54366">
        <ele>1034</ele>
      </trkpt>
      <trkpt lat="43.75769" lon="6.54366">
        <ele>1038.3</ele>
      </trkpt>
      <trkpt lat="43.75749" lon="6.54355">
        <ele>1044.2</ele>
      </trkpt>
      <trkpt lat="43.7574" lon="6.54357">
        <ele>1045.9</ele>
      </trkpt>
      <trkpt lat="43.75728" lon="6.54367">
        <ele>1047</ele>
      </trkpt>
      <trkpt lat="43.75723" lon="6.54378">
        <ele>1046.8</ele>
      </trkpt>
      <trkpt lat="43.75724" lon="6.54384">
        <ele>1046.2</ele>
      </trkpt>
      <trkpt lat="43.75722" lon="6.54397">
        <ele>1045.3</ele>
      </trkpt>
      <trkpt lat="43.75716" lon="6.54401">
        <ele>1046.4</ele>
      </trkpt>
      <trkpt lat="43.7571" lon="6.54403">
        <ele>1047.4</ele>
      </trkpt>
      <trkpt lat="43.75701" lon="6.54396">
        <ele>1049.6</ele>
      </trkpt>
      <trkpt lat="43.75694" lon="6.54388">
        <ele>1051.6</ele>
      </trkpt>
      <trkpt lat="43.75686" lon="6.54375">
        <ele>1054</ele>
      </trkpt>
      <trkpt lat="43.75676" lon="6.54365">
        <ele>1056.1</ele>
      </trkpt>
      <trkpt lat="43.75659" lon="6.54356">
        <ele>1058.8</ele>
      </trkpt>
      <trkpt lat="43.75632" lon="6.54351">
        <ele>1060.7</ele>
      </trkpt>
      <trkpt lat="43.75608" lon="6.54355">
        <ele>1062.3</ele>
      </trkpt>
      <trkpt lat="43.75591" lon="6.54351">
        <ele>1064</ele>
      </trkpt>
      <trkpt lat="43.75574" lon="6.54344">
        <ele>1065.5</ele>
      </trkpt>
      <trkpt lat="43.75568" lon="6.54348">
        <ele>1065.8</ele>
      </trkpt>
      <trkpt lat="43.75561" lon="6.54358">
        <ele>1066</ele>
      </trkpt>
      <trkpt lat="43.75551" lon="6.54378">
        <ele>1066.5</ele>
      </trkpt>
      <trkpt lat="43.75538" lon="6.54393">
        <ele>1067.7</ele>
      </trkpt>
      <trkpt lat="43.75529" lon="6.54397">
        <ele>1068.5</ele>
      </trkpt>
      <trkpt lat="43.75512" lon="6.54397">
        <ele>1070</ele>
      </trkpt>
      <trkpt lat="43.75493" lon="6.54401">
        <ele>1071.5</ele>
      </trkpt>
      <trkpt lat="43.75484" lon="6.54407">
        <ele>1072.1</ele>
      </trkpt>
      <trkpt lat="43.75473" lon="6.5441">
        <ele>1072.7</ele>
      </trkpt>
      <trkpt lat="43.75484" lon="6.54425">
        <ele>1072.2</ele>
      </trkpt>
      <trkpt lat="43.75499" lon="6.5444">
        <ele>1071.9</ele>
      </trkpt>
      <trkpt lat="43.75518" lon="6.54461">
        <ele>1071.5</ele>
      </trkpt>
      <trkpt lat="43.75538" lon="6.54498">
        <ele>1070.8</ele>
      </trkpt>
      <trkpt lat="43.75554" lon="6.54515">
        <ele>1069.9</ele>
      </trkpt>
      <trkpt lat="43.75572" lon="6.54532">
        <ele>1069.4</ele>
      </trkpt>
      <trkpt lat="43.756" lon="6.54555">
        <ele>1068.6</ele>
      </trkpt>
      <trkpt lat="43.75619" lon="6.54583">
        <ele>1068.5</ele>
      </trkpt>
      <trkpt lat="43.75645" lon="6.54626">
        <ele>1068.2</ele>
      </trkpt>
      <trkpt lat="43.7567" lon="6.54648">
        <ele>1065.7</ele>
      </trkpt>
      <trkpt lat="43.75685" lon="6.54662">
        <ele>1064</ele>
      </trkpt>
      <trkpt lat="43.75724" lon="6.54691">
        <ele>1062.2</ele>
      </trkpt>
      <trkpt lat="43.75734" lon="6.547">
        <ele>1063.2</ele>
      </trkpt>
      <trkpt lat="43.7574" lon="6.54716">
        <ele>1064.8</ele>
      </trkpt>
      <trkpt lat="43.75741" lon="6.54732">
        <ele>1066.5</ele>
      </trkpt>
      <trkpt lat="43.75746" lon="6.54753">
        <ele>1069.5</ele>
      </trkpt>
      <trkpt lat="43.7575" lon="6.54794">
        <ele>1074.2</ele>
      </trkpt>
      <trkpt lat="43.75757" lon="6.54826">
        <ele>1077.8</ele>
      </trkpt>
      <trkpt lat="43.75771" lon="6.54861">
        <ele>1082.4</ele>
      </trkpt>
      <trkpt lat="43.75778" lon="6.549">
        <ele>1080.5</ele>
      </trkpt>
      <trkpt lat="43.75791" lon="6.54933">
        <ele>1079.1</ele>
      </trkpt>
      <trkpt lat="43.75802" lon="6.54963">
        <ele>1075.3</ele>
      </trkpt>
      <trkpt lat="43.75813" lon="6.54988">
        <ele>1071.6</ele>
      </trkpt>
      <trkpt lat="43.75819" lon="6.54996">
        <ele>1070.1</ele>
      </trkpt>
      <trkpt lat="43.75823" lon="6.55011">
        <ele>1066.8</ele>
      </trkpt>
      <trkpt lat="43.75832" lon="6.55027">
        <ele>1064.7</ele>
      </trkpt>
      <trkpt lat="43.75846" lon="6.55033">
        <ele>1064</ele>
      </trkpt>
      <trkpt lat="43.7586" lon="6.55052">
        <ele>1061.7</ele>
      </trkpt>
      <trkpt lat="43.75876" lon="6.5506">
        <ele>1061.9</ele>
      </trkpt>
      <trkpt lat="43.75888" lon="6.55059">
        <ele>1062.5</ele>
      </trkpt>
      <trkpt lat="43.7589" lon="6.55089">
        <ele>1056.7</ele>
      </trkpt>
      <trkpt lat="43.75897" lon="6.55111">
        <ele>1053.1</ele>
      </trkpt>
      <trkpt lat="43.75906" lon="6.55129">
        <ele>1051.2</ele>
      </trkpt>
      <trkpt lat="43.75907" lon="6.55145">
        <ele>1049.1</ele>
      </trkpt>
      <trkpt lat="43.75904" lon="6.55198">
        <ele>1040.3</ele>
      </trkpt>
      <trkpt lat="43.75905" lon="6.55219">
        <ele>1037.7</ele>
      </trkpt>
      <trkpt lat="43.75906" lon="6.55276">
        <ele>1030.6</ele>
      </trkpt>
      <trkpt lat="43.75908" lon="6.55302">
        <ele>1028.5</ele>
      </trkpt>
      <trkpt lat="43.75907" lon="6.55334">
        <ele>1025</ele>
      </trkpt>
      <trkpt lat="43.75899" lon="6.55346">
        <ele>1022.5</ele>
      </trkpt>
      <trkpt lat="43.75894" lon="6.55364">
        <ele>1019.3</ele>
      </trkpt>
      <trkpt lat="43.75893" lon="6.55393">
        <ele>1015.8</ele>
      </trkpt>
      <trkpt lat="43.75888" lon="6.55418">
        <ele>1012.4</ele>
      </trkpt>
      <trkpt lat="43.75886" lon="6.55436">
        <ele>1010</ele>
      </trkpt>
      <trkpt lat="43.75887" lon="6.55459">
        <ele>1007.1</ele>
      </trkpt>
      <trkpt lat="43.75895" lon="6.55528">
        <ele>997.5</ele>
      </trkpt>
      <trkpt lat="43.75898" lon="6.55545">
        <ele>995.4</ele>
      </trkpt>
      <trkpt lat="43.75915" lon="6.55588">
        <ele>990.1</ele>
      </trkpt>
      <trkpt lat="43.75921" lon="6.55608">
        <ele>987.1</ele>
      </trkpt>
      <trkpt lat="43.75925" lon="6.55637">
        <ele>983.4</ele>
      </trkpt>
      <trkpt lat="43.75935" lon="6.5569">
        <ele>978.1</ele>
      </trkpt>
      <trkpt lat="43.75934" lon="6.55706">
        <ele>976.6</ele>
      </trkpt>
      <trkpt lat="43.75936" lon="6.55719">
        <ele>975.5</ele>
      </trkpt>
      <trkpt lat="43.75932" lon="6.55737">
        <ele>974.3</ele>
      </trkpt>
      <trkpt lat="43.75934" lon="6.55754">
        <ele>972.5</ele>
      </trkpt>
      <trkpt lat="43.75946" lon="6.55771">
        <ele>969.7</ele>
      </trkpt>
      <trkpt lat="43.75958" lon="6.55796">
        <ele>966.1</ele>
      </trkpt>
      <trkpt lat="43.75967" lon="6.55823">
        <ele>963.4</ele>
      </trkpt>
      <trkpt lat="43.75968" lon="6.55832">
        <ele>962.7</ele>
      </trkpt>
      <trkpt lat="43.75975" lon="6.55833">
        <ele>962</ele>
      </trkpt>
      <trkpt lat="43.75979" lon="6.55821">
        <ele>961.1</ele>
      </trkpt>
      <trkpt lat="43.75987" lon="6.55814">
        <ele>960.7</ele>
      </trkpt>
      <trkpt lat="43.76005" lon="6.55766">
        <ele>961.6</ele>
      </trkpt>
      <trkpt lat="43.76087" lon="6.55839">
        <ele>950.7</ele>
      </trkpt>
      <trkpt lat="43.76095" lon="6.55849">
        <ele>950.2</ele>
      </trkpt>
    </trkseg>
  </trk>
</gpx>